ATLAS 5 CENTAUR DEB     
1 47096U 14055DE  26055.57888081 -.00000016  00000+0  00000+0 0  9990
2 47096  19.2659 177.1970 4886288 106.0275 311.3048  1.79155303 35100
LUCAS (JDRS-1)          
1 47202U 20089A   26061.83416683 -.00000252  00000+0  00000+0 0  9996
2 47202   0.0647 275.3339 0002839  60.9087 215.4105  1.00273605 19358
SXM-7                   
1 47240U 20096A   26061.36850308 -.00000223  00000+0  00000+0 0  9998
2 47240   0.0187 122.0310 0004024   7.7857  77.7989  1.00275144  6375
BREEZE-M DEB [TANK]     
1 47243U 20097B   26060.17900884  .00000616  00000+0  69124-3 0  9996
2 47243  58.2648 130.5864 7302458 103.3091 340.4143  2.20431771 41829
CMS-01                  
1 47256U 20099A   26061.65864066 -.00000181  00000+0  00000+0 0  9999
2 47256   0.0149 136.5446 0006539 152.2006 191.7769  1.00272363 19136
TURKSAT 5A              
1 47306U 21001A   26061.73687463  .00000137  00000+0  00000+0 0  9992
2 47306   0.0199 100.9178 0000147 199.6848 156.0918  1.00270284 18894
FALCON 9 R/B            
1 47307U 21001B   26060.77616301  .00000393  00000+0  16153-2 0  9992
2 47307  15.9489 217.5515 7774903 337.7507   1.4356  1.65124071 28381
TIANTONG-1 3            
1 47321U 21003A   26061.70991772 -.00000170  00000+0  00000+0 0  9997
2 47321   1.8555 332.9880 0006622 340.6572 183.9058  1.00269909 18895
TJS-6                   
1 47613U 21010A   26061.69475442  .00000026  00000+0  00000+0 0  9997
2 47613   0.3248  90.8809 0003194 282.2043 215.9755  1.00270041 18741
ARKTIKA-M 1             
1 47719U 21016A   26061.82287547 -.00000108  00000+0  00000+0 0  9994
2 47719  63.2036  72.8571 7242815 269.4536  15.2019  2.00620868 36654
FREGAT R/B              
1 47720U 21016B   26060.90955432 -.00001502  00000+0  00000+0 0  9998
2 47720  63.2285  65.8235 7364666 267.1765  14.9941  1.98956105 36303
SHIYAN-9 (SY-9)         
1 47851U 21019A   26044.36779670 -.00000221  00000+0  00000+0 0  9993
2 47851  16.7978 304.0404 0016854  23.4452  94.4865  1.00262375 22897
SL-6 DEB                
1 48261U 80063E   26058.20421367  .00000159  00000+0  15341-2 0  9994
2 48261  63.9001   0.2858 7122643 284.4845  11.8012  2.11466866 94685
SL-6 DEB                
1 48262U 80063F   26061.42521534 -.00000384  00000+0  41557-2 0  9999
2 48262  63.5913  18.2182 7221352 280.8708 337.5656  2.05119247 91970
COSMOS 1367 DEB         
1 48266U 82045E   26061.47309167 -.00000314  00000+0  25322-1 0  9990
2 48266  64.1036  65.6335 7205229  13.4152 358.4753  2.06314986 45428
ARIANE 3 DEB            
1 48347U 84081G   26060.93401888 -.00000348  00000+0  00000+0 0  9996
2 48347   6.1190  30.5378 7096926 303.6596   7.7829  2.08089543 93411
SBIRS GEO-5 (USA 315)   
1 48618U 21042A   26061.79819039 -.00000283  00000+0  00000+0 0  9999
2 48618   5.2390 328.3273 0001558 356.8913 216.4750  1.00271490 17704
